{"fetched_at":"2026-07-21T07:07:13.008Z","source":"https://celestrak.org/NORAD/elements/gp.php?NAME=SPACEMOBILE&FORMAT=JSON","constellation":"ast-spacemobile","records":[{"OBJECT_NAME":"SPACEMOBILE-003","OBJECT_ID":"2024-163A","EPOCH":"2026-07-20T03:25:08.519808","CLASSIFICATION_TYPE":"U","MEAN_MOTION":15.20721715,"ECCENTRICITY":0.0004241,"INCLINATION":52.9674,"RA_OF_ASC_NODE":157.8928,"ARG_OF_PERICENTER":210.2897,"MEAN_ANOMALY":149.7852,"EPHEMERIS_TYPE":0,"NORAD_CAT_ID":61045,"ELEMENT_SET_NO":999,"REV_AT_EPOCH":10278,"BSTAR":0.000089590351,"MEAN_MOTION_DOT":0.0000167,"MEAN_MOTION_DDOT":0},{"OBJECT_NAME":"SPACEMOBILE-005","OBJECT_ID":"2024-163B","EPOCH":"2026-07-20T21:56:57.091488","CLASSIFICATION_TYPE":"U","MEAN_MOTION":15.20706249,"ECCENTRICITY":0.00083748,"INCLINATION":52.9746,"RA_OF_ASC_NODE":154.2965,"ARG_OF_PERICENTER":212.0613,"MEAN_ANOMALY":147.9872,"EPHEMERIS_TYPE":0,"NORAD_CAT_ID":61046,"ELEMENT_SET_NO":999,"REV_AT_EPOCH":10289,"BSTAR":-0.000023258846,"MEAN_MOTION_DOT":-0.00000847,"MEAN_MOTION_DDOT":0},{"OBJECT_NAME":"SPACEMOBILE-001","OBJECT_ID":"2024-163C","EPOCH":"2026-07-20T06:08:11.084640","CLASSIFICATION_TYPE":"U","MEAN_MOTION":15.20700764,"ECCENTRICITY":0.00069537,"INCLINATION":52.971,"RA_OF_ASC_NODE":157.0335,"ARG_OF_PERICENTER":209.4162,"MEAN_ANOMALY":150.6442,"EPHEMERIS_TYPE":0,"NORAD_CAT_ID":61047,"ELEMENT_SET_NO":999,"REV_AT_EPOCH":10279,"BSTAR":0.000008659876,"MEAN_MOTION_DOT":-0.00000135,"MEAN_MOTION_DDOT":0},{"OBJECT_NAME":"SPACEMOBILE-002","OBJECT_ID":"2024-163D","EPOCH":"2026-07-19T04:30:48.555072","CLASSIFICATION_TYPE":"U","MEAN_MOTION":15.20578455,"ECCENTRICITY":0.00047519,"INCLINATION":52.9793,"RA_OF_ASC_NODE":161.9891,"ARG_OF_PERICENTER":205.9492,"MEAN_ANOMALY":154.1265,"EPHEMERIS_TYPE":0,"NORAD_CAT_ID":61048,"ELEMENT_SET_NO":999,"REV_AT_EPOCH":10263,"BSTAR":0.00048876039,"MEAN_MOTION_DOT":0.00010534,"MEAN_MOTION_DDOT":0},{"OBJECT_NAME":"SPACEMOBILE-004","OBJECT_ID":"2024-163E","EPOCH":"2026-07-20T06:54:23.132736","CLASSIFICATION_TYPE":"U","MEAN_MOTION":15.20670628,"ECCENTRICITY":0.0005406,"INCLINATION":52.9728,"RA_OF_ASC_NODE":156.7022,"ARG_OF_PERICENTER":240.1803,"MEAN_ANOMALY":119.8654,"EPHEMERIS_TYPE":0,"NORAD_CAT_ID":61049,"ELEMENT_SET_NO":999,"REV_AT_EPOCH":10280,"BSTAR":0.00054287,"MEAN_MOTION_DOT":0.00011771,"MEAN_MOTION_DDOT":0},{"OBJECT_NAME":"SPACEMOBILE-001 DEB","OBJECT_ID":"2024-163F","EPOCH":"2026-07-20T12:23:55.945536","CLASSIFICATION_TYPE":"U","MEAN_MOTION":15.35448688,"ECCENTRICITY":0.00057455,"INCLINATION":52.9936,"RA_OF_ASC_NODE":122.5135,"ARG_OF_PERICENTER":272.9118,"MEAN_ANOMALY":87.1226,"EPHEMERIS_TYPE":0,"NORAD_CAT_ID":62369,"ELEMENT_SET_NO":999,"REV_AT_EPOCH":9162,"BSTAR":0.00019488572,"MEAN_MOTION_DOT":0.00006434,"MEAN_MOTION_DDOT":0},{"OBJECT_NAME":"SPACEMOBILE-002 DEB","OBJECT_ID":"2024-163G","EPOCH":"2026-07-20T22:01:17.879520","CLASSIFICATION_TYPE":"U","MEAN_MOTION":15.43964027,"ECCENTRICITY":0.00048069,"INCLINATION":52.9421,"RA_OF_ASC_NODE":104.3719,"ARG_OF_PERICENTER":307.5063,"MEAN_ANOMALY":52.5504,"EPHEMERIS_TYPE":0,"NORAD_CAT_ID":62370,"ELEMENT_SET_NO":999,"REV_AT_EPOCH":10357,"BSTAR":0.0003110839,"MEAN_MOTION_DOT":0.00013995,"MEAN_MOTION_DDOT":0},{"OBJECT_NAME":"SPACEMOBILE-003 DEB","OBJECT_ID":"2024-163H","EPOCH":"2026-07-20T21:28:49.362528","CLASSIFICATION_TYPE":"U","MEAN_MOTION":15.41704661,"ECCENTRICITY":0.00054418,"INCLINATION":52.9695,"RA_OF_ASC_NODE":111.4917,"ARG_OF_PERICENTER":257.8641,"MEAN_ANOMALY":102.1753,"EPHEMERIS_TYPE":0,"NORAD_CAT_ID":62371,"ELEMENT_SET_NO":999,"REV_AT_EPOCH":9708,"BSTAR":0.00036060088,"MEAN_MOTION_DOT":0.00015082,"MEAN_MOTION_DDOT":0},{"OBJECT_NAME":"SPACEMOBILE-004 DEB","OBJECT_ID":"2024-163J","EPOCH":"2026-07-20T21:59:57.953472","CLASSIFICATION_TYPE":"U","MEAN_MOTION":15.40865708,"ECCENTRICITY":0.0002851,"INCLINATION":52.9841,"RA_OF_ASC_NODE":111.0857,"ARG_OF_PERICENTER":288.7101,"MEAN_ANOMALY":71.3593,"EPHEMERIS_TYPE":0,"NORAD_CAT_ID":62372,"ELEMENT_SET_NO":999,"REV_AT_EPOCH":10015,"BSTAR":0.00024089862,"MEAN_MOTION_DOT":0.00009649,"MEAN_MOTION_DDOT":0},{"OBJECT_NAME":"SPACEMOBILE-005 DEB","OBJECT_ID":"2024-163K","EPOCH":"2026-07-20T22:22:14.745504","CLASSIFICATION_TYPE":"U","MEAN_MOTION":15.34727681,"ECCENTRICITY":0.00054881,"INCLINATION":52.974,"RA_OF_ASC_NODE":125.478,"ARG_OF_PERICENTER":251.1749,"MEAN_ANOMALY":108.8656,"EPHEMERIS_TYPE":0,"NORAD_CAT_ID":62373,"ELEMENT_SET_NO":999,"REV_AT_EPOCH":10330,"BSTAR":0.00024526567,"MEAN_MOTION_DOT":0.00008007,"MEAN_MOTION_DDOT":0},{"OBJECT_NAME":"SPACEMOBILE-006","OBJECT_ID":"2025-309A","EPOCH":"2026-07-20T08:15:28.381536","CLASSIFICATION_TYPE":"U","MEAN_MOTION":15.18671763,"ECCENTRICITY":0.00095935,"INCLINATION":52.9942,"RA_OF_ASC_NODE":179.7458,"ARG_OF_PERICENTER":233.1495,"MEAN_ANOMALY":126.8619,"EPHEMERIS_TYPE":0,"NORAD_CAT_ID":67232,"ELEMENT_SET_NO":999,"REV_AT_EPOCH":3163,"BSTAR":0.00010373706,"MEAN_MOTION_DOT":0.00001858,"MEAN_MOTION_DDOT":0},{"OBJECT_NAME":"SPACEMOBILE-008","OBJECT_ID":"2026-139A","EPOCH":"2026-07-20T21:36:45.202752","CLASSIFICATION_TYPE":"U","MEAN_MOTION":15.12808185,"ECCENTRICITY":0.00052595,"INCLINATION":52.9952,"RA_OF_ASC_NODE":109.5048,"ARG_OF_PERICENTER":70.1086,"MEAN_ANOMALY":290.0472,"EPHEMERIS_TYPE":0,"NORAD_CAT_ID":69589,"ELEMENT_SET_NO":999,"REV_AT_EPOCH":508,"BSTAR":0.000034862622,"MEAN_MOTION_DOT":0.00000318,"MEAN_MOTION_DDOT":0},{"OBJECT_NAME":"SPACEMOBILE-009","OBJECT_ID":"2026-139B","EPOCH":"2026-07-20T21:40:09.073920","CLASSIFICATION_TYPE":"U","MEAN_MOTION":15.12707117,"ECCENTRICITY":0.00055559,"INCLINATION":52.9943,"RA_OF_ASC_NODE":109.5135,"ARG_OF_PERICENTER":66.3129,"MEAN_ANOMALY":293.8445,"EPHEMERIS_TYPE":0,"NORAD_CAT_ID":69590,"ELEMENT_SET_NO":999,"REV_AT_EPOCH":508,"BSTAR":0.000081933873,"MEAN_MOTION_DOT":0.0000115,"MEAN_MOTION_DDOT":0},{"OBJECT_NAME":"SPACEMOBILE-010","OBJECT_ID":"2026-139C","EPOCH":"2026-07-20T21:45:31.439232","CLASSIFICATION_TYPE":"U","MEAN_MOTION":15.12543979,"ECCENTRICITY":0.00055394,"INCLINATION":52.9949,"RA_OF_ASC_NODE":109.5396,"ARG_OF_PERICENTER":58.9891,"MEAN_ANOMALY":301.1643,"EPHEMERIS_TYPE":0,"NORAD_CAT_ID":69591,"ELEMENT_SET_NO":999,"REV_AT_EPOCH":509,"BSTAR":0.000079124741,"MEAN_MOTION_DOT":0.00001095,"MEAN_MOTION_DDOT":0}]}
