// AST SpaceMobile TLE data — regenerate with ./update-tles.sh
const TLE_DATA = {
 "fetched": "2026-07-21T08:36:22Z",
 "tles": {
  "SPACEMOBILE-003": [
   "1 61045U 24163A   26201.14245972  .00001670  00000+0  89590-4 0  9995",
   "2 61045  52.9674 157.8928 0004241 210.2897 149.7852 15.20721715102786"
  ],
  "SPACEMOBILE-005": [
   "1 61046U 24163B   26201.91454967 -.00000847  00000+0 -23259-4 0  9994",
   "2 61046  52.9746 154.2965 0008374 212.0613 147.9872 15.20706249102895"
  ],
  "SPACEMOBILE-001": [
   "1 61047U 24163C   26201.25568385 -.00000135  00000+0  86599-5 0  9998",
   "2 61047  52.9710 157.0335 0006953 209.4162 150.6442 15.20700764102798"
  ],
  "SPACEMOBILE-002": [
   "1 61048U 24163D   26200.18806198  .00010534  00000+0  48876-3 0  9994",
   "2 61048  52.9793 161.9891 0004751 205.9492 154.1265 15.20578455102637"
  ],
  "SPACEMOBILE-004": [
   "1 61049U 24163E   26201.28776774  .00011771  00000+0  54287-3 0  9990",
   "2 61049  52.9728 156.7022 0005406 240.1803 119.8654 15.20670628102803"
  ],
  "SPACEMOBILE-001 DEB": [
   "1 62369U 24163F   26201.51661974  .00006434  00000+0  19489-3 0  9992",
   "2 62369  52.9936 122.5135 0005745 272.9118  87.1226 15.35448688 91628"
  ],
  "SPACEMOBILE-002 DEB": [
   "1 62370U 24163G   26201.91756805  .00013995  00000+0  31108-3 0  9998",
   "2 62370  52.9421 104.3719 0004806 307.5063  52.5504 15.43964027103578"
  ],
  "SPACEMOBILE-003 DEB": [
   "1 62371U 24163H   26201.89501577  .00015082  00000+0  36060-3 0  9991",
   "2 62371  52.9695 111.4917 0005441 257.8641 102.1753 15.41704661 97086"
  ],
  "SPACEMOBILE-004 DEB": [
   "1 62372U 24163J   26201.91664298  .00009649  00000+0  24090-3 0  9997",
   "2 62372  52.9841 111.0857 0002851 288.7101  71.3593 15.40865708100156"
  ],
  "SPACEMOBILE-005 DEB": [
   "1 62373U 24163K   26201.93211511  .00008007  00000+0  24527-3 0  9998",
   "2 62373  52.9740 125.4780 0005488 251.1749 108.8656 15.34727681103306"
  ],
  "SPACEMOBILE-006": [
   "1 67232U 25309A   26201.34407849  .00001858  00000+0  10374-3 0  9998",
   "2 67232  52.9942 179.7458 0009593 233.1495 126.8619 15.18671763 31638"
  ],
  "SPACEMOBILE-008": [
   "1 69589U 26139A   26201.90052318  .00000318  00000+0  34863-4 0  9996",
   "2 69589  52.9952 109.5048 0005259  70.1086 290.0472 15.12808185  5087"
  ],
  "SPACEMOBILE-009": [
   "1 69590U 26139B   26201.90288280  .00001150  00000+0  81934-4 0  9993",
   "2 69590  52.9943 109.5135 0005555  66.3129 293.8445 15.12707117  5084"
  ],
  "SPACEMOBILE-010": [
   "1 69591U 26139C   26201.90661388  .00001095  00000+0  79125-4 0  9995",
   "2 69591  52.9949 109.5396 0005539  58.9891 301.1643 15.12543979  5093"
  ]
 }
};
